XRISM                   
1 57800U 23137A   24053.20776200  .00004926  00000+0  38322-3 0  9995
2 57800  31.0047  29.9904 0009944 142.4231 217.7100 14.99691130 25258
